[{"OBJECT_NAME":"STARLINK-2590","OBJECT_ID":"2021-038AW","EPOCH":"2026-03-09T23:13:09.400224","MEAN_MOTION":15.30175723,"ECCENTRICITY":0.00012287,"INCLINATION":53.1606,"RA_OF_ASC_NODE":331.3508,"ARG_OF_PERICENTER":67.7668,"MEAN_ANOMALY":292.3463,"EPHEMERIS_TYPE":0,"CLASSIFICATION_TYPE":"U","NORAD_CAT_ID":48397,"ELEMENT_SET_NO":999,"REV_AT_EPOCH":26870,"BSTAR":-6.4755149e-5,"MEAN_MOTION_DOT":-2.275e-5,"MEAN_MOTION_DDOT":0},{"OBJECT_NAME":"ION SCV-015","OBJECT_ID":"2023-185H","EPOCH":"2026-03-09T22:36:51.209568","MEAN_MOTION":15.3163624,"ECCENTRICITY":0.00109059,"INCLINATION":97.5772,"RA_OF_ASC_NODE":155.3582,"ARG_OF_PERICENTER":92.3805,"MEAN_ANOMALY":267.8685,"EPHEMERIS_TYPE":0,"CLASSIFICATION_TYPE":"U","NORAD_CAT_ID":58469,"ELEMENT_SET_NO":999,"REV_AT_EPOCH":12588,"BSTAR":0.00030895808,"MEAN_MOTION_DOT":9.376e-5,"MEAN_MOTION_DDOT":0}]
